H1 CPF  1  DGF 2022 04 17 11  6071 larets     NONE      
H2   304206 5557    27944 2022 04 17 00 00 00 2022 04 24 00 00 00    30 1 1  0 0 0
H5  0.0650
H9
10 0 59691  18000.000000  0      -1227811.927       2479897.476      -6513040.301
10 0 59691  18030.000000  0      -1063147.914       2344886.038      -6591725.229
10 0 59691  18060.000000  0       -898014.965       2206801.423      -6663750.052
10 0 59691  18090.000000  0       -732592.007       2065780.895      -6729043.308
10 0 59691  18120.000000  0       -567057.574       1921965.357      -6787540.256
10 0 59691  18150.000000  0       -401589.618       1775499.207      -6839182.930
10 0 59691  18180.000000  0       -236365.329       1626530.199      -6883920.187
10 0 59691  18210.000000  0        -71560.955       1475209.301      -6921707.757
10 0 59691  18240.000000  0         92648.386       1321690.541      -6952508.281
10 0 59691  18270.000000  0        256088.886       1166130.857      -6976291.342
10 0 59691  18300.000000  0        418588.225       1008689.942      -6993033.497
10 0 59691  18330.000000  0        579975.748        849530.083      -7002718.292
10 0 59691  18360.000000  0        740082.643        688815.994      -7005336.280
10 0 59691  18390.000000  0        898742.111        526714.655      -7000885.022
10 0 59691  18420.000000  0       1055789.529        363395.138      -6989369.089
10 0 59691  18450.000000  0       1211062.623        199028.438      -6970800.057
10 0 59691  18480.000000  0       1364401.623         33787.301      -6945196.493
10 0 59691  18510.000000  0       1515649.423       -132153.953      -6912583.940
10 0 59691  18540.000000  0       1664651.739       -298619.605      -6872994.893
10 0 59691  18570.000000  0       1811257.256       -465432.715      -6826468.771
10 0 59691  18600.000000  0       1955317.784       -632415.307      -6773051.889
10 0 59691  18630.000000  0       2096688.403       -799388.555      -6712797.414
10 0 59691  18660.000000  0       2235227.607       -966172.963      -6645765.318
10 0 59691  18690.000000  0       2370797.446      -1132588.561      -6572022.320
10 0 59691  18720.000000  0       2503263.656      -1298455.082      -6491641.830
10 0 59691  18750.000000  0       2632495.790      -1463592.157      -6404703.883
10 0 59691  18780.000000  0       2758367.346      -1627819.499      -6311295.072
10 0 59691  18810.000000  0       2880755.889      -1790957.101      -6211508.475
10 0 59691  18840.000000  0       2999543.176      -1952825.425      -6105443.577
10 0 59691  18870.000000  0       3114615.268      -2113245.603      -5993206.179
10 0 59691  18900.000000  0       3225862.650      -2272039.630      -5874908.306
10 0 59691  18930.000000  0       3333180.331      -2429030.563      -5750668.106
10 0 59691  18960.000000  0       3436467.955      -2584042.719      -5620609.737
10 0 59691  18990.000000  0       3535629.891      -2736901.866      -5484863.253
10 0 59691  19020.000000  0       3630575.324      -2887435.425      -5343564.483
10 0 59691  19050.000000  0       3721218.343      -3035472.656      -5196854.907
10 0 59691  19080.000000  0       3807478.020      -3180844.857      -5044881.519
10 0 59691  19110.000000  0       3889278.484      -3323385.549      -4887796.695
10 0 59691  19140.000000  0       3966548.994      -3462930.674      -4725758.048
10 0 59691  19170.000000  0       4039224.003      -3599318.776      -4558928.286
10 0 59691  19200.000000  0       4107243.218      -3732391.196      -4387475.055
10 0 59691  19230.000000  0       4170551.657      -3861992.256      -4211570.785
10 0 59691  19260.000000  0       4229099.698      -3987969.444      -4031392.522
10 0 59691  19290.000000  0       4282843.122      -4110173.602      -3847121.759
10 0 59691  19320.000000  0       4331743.154      -4228459.099      -3658944.262
10 0 59691  19350.000000  0       4375766.490      -4342684.013      -3467049.889
10 0 59691  19380.000000  0       4414885.327      -4452710.305      -3271632.400
10 0 59691  19410.000000  0       4449077.381      -4558403.987      -3072889.273
10 0 59691  19440.000000  0       4478325.900      -4659635.292      -2871021.503
10 0 59691  19470.000000  0       4502619.675      -4756278.833      -2666233.408
10 0 59691  19500.000000  0       4521953.034      -4848213.775      -2458732.420
10 0 59691  19530.000000  0       4536325.840      -4935323.981      -2248728.879
10 0 59691  19560.000000  0       4545743.477      -5017498.170      -2036435.820
10 0 59691  19590.000000  0       4550216.828      -5094630.059      -1822068.750
10 0 59691  19620.000000  0       4549762.249      -5166618.499      -1605845.438
10 0 59691  19650.000000  0       4544401.545      -5233367.617      -1387985.685
10 0 59691  19680.000000  0       4534161.922      -5294786.941      -1168711.103
10 0 59691  19710.000000  0       4519075.950      -5350791.527       -948244.881
10 0 59691  19740.000000  0       4499181.505      -5401302.073       -726811.558
10 0 59691  19770.000000  0       4474521.716      -5446245.037       -504636.785
10 0 59691  19800.000000  0       4445144.895      -5485552.731       -281947.098
10 0 59691  19830.000000  0       4411104.475      -5519163.433        -58969.678
10 0 59691  19860.000000  0       4372458.929      -5547021.469        164067.887
10 0 59691  19890.000000  0       4329271.689      -5569077.307        386937.836
10 0 59691  19920.000000  0       4281611.060      -5585287.634        609412.485
10 0 59691  19950.000000  0       4229550.126      -5595615.421        831264.458
10 0 59691  19980.000000  0       4173166.647      -5600029.991       1052266.937
10 0 59691  20010.000000  0       4112542.958      -5598507.068       1272193.896
10 0 59691  20040.000000  0       4047765.853      -5591028.827       1490820.342
10 0 59691  20070.000000  0       3978926.470      -5577583.934       1707922.549
10 0 59691  20100.000000  0       3906120.165      -5558167.577       1923278.296
10 0 59691  20130.000000  0       3829446.393      -5532781.496       2136667.095
10 0 59691  20160.000000  0       3749008.572      -5501433.996       2347870.429
10 0 59691  20190.000000  0       3664913.951      -5464139.964       2556671.977
10 0 59691  20220.000000  0       3577273.472      -5420920.868       2762857.850
10 0 59691  20250.000000  0       3486201.626      -5371804.750       2966216.813
10 0 59691  20280.000000  0       3391816.301      -5316826.215       3166540.509
10 0 59691  20310.000000  0       3294238.634      -5256026.400       3363623.676
10 0 59691  20340.000000  0       3193592.857      -5189452.953       3557264.364
10 0 59691  20370.000000  0       3090006.139      -5117159.994       3747264.139
10 0 59691  20400.000000  0       2983608.428      -5039208.067       3933428.299
10 0 59691  20430.000000  0       2874532.289      -4955664.095       4115566.074
10 0 59691  20460.000000  0       2762912.737      -4866601.317       4293490.830
10 0 59691  20490.000000  0       2648887.064      -4772099.218       4467020.258
10 0 59691  20520.000000  0       2532594.676      -4672243.455       4635976.567
10 0 59691  20550.000000  0       2414176.914      -4567125.775       4800186.663
10 0 59691  20580.000000  0       2293776.889      -4456843.930       4959482.327
10 0 59691  20610.000000  0       2171539.306      -4341501.578       5113700.388
10 0 59691  20640.000000  0       2047610.288      -4221208.188       5262682.899
10 0 59691  20670.000000  0       1922137.199      -4096078.922       5406277.298
10 0 59691  20700.000000  0       1795268.462      -3966234.521       5544336.560
10 0 59691  20730.000000  0       1667153.387      -3831801.182       5676719.350
10 0 59691  20760.000000  0       1537941.988      -3692910.428       5803290.161
10 0 59691  20790.000000  0       1407784.809      -3549698.977       5923919.455
10 0 59691  20820.000000  0       1276832.742      -3402308.596       6038483.786
10 0 59691  20850.000000  0       1145236.854      -3250885.966       6146865.927
10 0 59691  20880.000000  0       1013148.213      -3095582.521       6248954.986
10 0 59691  20910.000000  0        880717.708      -2936554.301       6344646.517
10 0 59691  20940.000000  0        748095.878      -2773961.787       6433842.626
10 0 59691  20970.000000  0        615432.740      -2607969.732       6516452.063
10 0 59691  21000.000000  0        482877.617      -2438746.991       6592390.315
10 0 59691  21030.000000  0        350578.971      -2266466.348       6661579.682
10 0 59691  21060.000000  0        218684.238      -2091304.343       6723949.361
10 0 59691  21090.000000  0         87339.659      -1913441.081       6779435.519
10 0 59691  21120.000000  0        -43309.875      -1733060.050       6827981.352
10 0 59691  21150.000000  0       -173120.996      -1550347.925       6869537.153
10 0 59691  21180.000000  0       -301952.008      -1365494.366       6904060.349
10 0 59691  21210.000000  0       -429663.043      -1178691.826       6931515.548
10 0 59691  21240.000000  0       -556116.219       -990135.343       6951874.574
10 0 59691  21270.000000  0       -681175.780       -800022.341       6965116.494
10 0 59691  21300.000000  0       -804708.255       -608552.413       6971227.640
10 0 59691  21330.000000  0       -926582.594       -415927.116       6970201.625
10 0 59691  21360.000000  0      -1046670.313       -222349.752       6962039.343
10 0 59691  21390.000000  0      -1164845.627        -28025.154       6946748.976
10 0 59691  21420.000000  0      -1280985.586        166840.530       6924345.980
10 0 59691  21450.000000  0      -1394970.200        362040.063       6894853.077
10 0 59691  21480.000000  0      -1506682.570        557365.340       6858300.225
10 0 59691  21510.000000  0      -1616009.003        752607.608       6814724.596
10 0 59691  21540.000000  0      -1722839.135        947557.690       6764170.537
10 0 59691  21570.000000  0      -1827066.045       1142006.218       6706689.531
99
